S-NET B                 
1 43187U 18014H   22342.47698110  .00003339  00000+0  28257-3 0  9990
2 43187  97.6462 244.7607 0012316  77.1520 283.1079 14.98638256264974
S-NET A                 
1 43188U 18014J   22342.47728185  .00003361  00000+0  28440-3 0  9996
2 43188  97.6468 244.8349 0012314  77.2748 282.9851 14.98638792264976
S-NET C                 
1 43189U 18014K   22343.01252188  .00003280  00000+0  27770-3 0  9998
2 43189  97.6463 245.2720 0012454  75.6614 284.5990 14.98637861263606
FENGMANIU-1 (FMN-1)     
1 43192U 18015A   22343.24474628  .00073306  00000+0  11786-2 0  9998
2 43192  97.5510 134.7887 0009148 131.9000 351.5748 15.52707485270413
SHAONIAN XING           
1 43199U 18015H   22343.21899483  .00030855  00000+0  73079-3 0  9998
2 43199  97.5319 127.6994 0012378 136.0660 347.5366 15.41639242270294
LUOJIA-1 01             
1 43485U 18048B   22343.06197506  .00001277  00000+0  18486-3 0  9999
2 43485  97.9239  61.4531 0011123   3.2848 356.8456 14.77783085243655
SURFSAT                 
1 43614U 18070B   22342.35476679  .00166577  00000+0  97173-3 0  9995
2 43614  92.9985 173.2236 0008022  43.0767 317.1135 15.77919314238231
CP7 (DAVE)              
1 43615U 18070C   22342.49992593  .00115282  00000+0  84419-3 0  9995
2 43615  92.9980 172.8530 0009090  48.2805 311.9244 15.72795163238181
CZ-4B R/B               
1 43656U 18081B   22342.66474947  .00000103  00000+0  48869-4 0  9994
2 43656  99.4213 130.8223 0208129   4.2085 356.0785 14.30663179215264
CUBEBEL-1 (BSUSAT-1)    
1 43666U 18083E   22343.15498115  .00014387  00000+0  54589-3 0  9999
2 43666  97.4056  10.1022 0013957  78.7871   9.4745 15.26866016228100
CHANGSHAGAOXIN (TY 4-01)
1 43669U 18083H   22343.19289435  .00011774  00000+0  47374-3 0  9990
2 43669  97.4014   5.5706 0010724  76.7092 357.1321 15.24994366227904
TEN-KOH                 
1 43677U 18084G   22342.65939626  .00002051  00000+0  20948-3 0  9990
2 43677  97.9874 114.6097 0016687  60.0593 300.2279 14.91649010223647
DIWATA-2B               
1 43678U 18084H   22343.65311909  .00000641  00000+0  68137-4 0  9996
2 43678  97.9945 119.2834 0011163  70.1947 290.0480 14.92529587223980
STARS-AO                
1 43679U 18084J   22343.06915762  .00003786  00000+0  35609-3 0  9999
2 43679  97.9978 121.1096 0010000  76.4490 283.7842 14.94480277224010
AUTCUBE 2               
1 43681U 18084K   22342.63222985  .00002280  00000+0  22118-3 0  9991
2 43681  97.9939 119.0365 0010283  72.3059 287.9282 14.93667388223847
METOP-C                 
1 43689U 18087A   22343.07370108  .00000132  00000+0  80490-4 0  9994
2 43689  98.7123  40.4014 0002266 241.5883 118.5066 14.21488399212115
IRVINE01                
1 43693U 18088D   22342.54151196  .00141453  00000+0  16966-2 0  9992
2 43693  85.0206 191.3387 0005319 126.2660 233.9095 15.60433621227116
ES'HAIL 2               
1 43700U 18090A   22342.88774228  .00000160  00000+0  00000+0 0  9996
2 43700   0.0160  15.3506 0001673 269.4204 138.2272  1.00273305 14772
FACSAT-1                
1 43721U 18096C   22343.18528772  .00040549  00000+0  85487-3 0  9991
2 43721  97.3373  63.6038 0012557 140.3601 307.4103 15.45047117224867
CENTAURI-2              
1 43722U 18096D   22342.49258579  .00074897  00000+0  11887-2 0  9995
2 43722  97.3417  66.2842 0009901 136.2387 223.9653 15.53054583224948
3CAT-1                  
1 43728U 18096K   22342.83468061  .00060496  00000+0  98348-3 0  9996
2 43728  97.3456  67.3826 0009663 140.9229 219.2723 15.52445953225034
INNOSAT-2               
1 43738U 18096V   22342.95139925  .08089890  24821-5  71450-3 0  9999
2 43738  97.3399  79.5482 0009350 286.3252 130.0469 16.39153213225801
REAKTOR HELLO WORLD     
1 43743U 18096AA  22343.03469526  .00021625  00000+0  55276-3 0  9997
2 43743  97.3410  62.6011 0014086 147.4564 212.7553 15.39367898224768
ELYSIUM STAR 2 & LFF    
1 43760U 18099C   22342.43206562  .00008630  00000+0  68574-3 0  9997
2 43760  97.6069  47.2690 0007937  45.9257 314.2619 15.00668286219195
2018-099D               
1 43761U 18099D   22343.10105791  .00001230  00000+0  11341-3 0  9994
2 43761  97.6020  45.0157 0015064  47.0736 313.1780 14.96364714219136
AISTECHSAT 2            
1 43768U 18099L   22342.59895989  .00003572  00000+0  31882-3 0  9991
2 43768  97.5977  42.9455 0012380  50.8660 309.3660 14.96514557218726
FOX-1CLIFF (AO-95)      
1 43770U 18099N   22342.59707289  .00004711  00000+0  40908-3 0  9994
2 43770  97.6016  44.3262 0015327  56.6239 303.6448 14.97406076219062
RANGE-A                 
1 43772U 18099Q   22342.90509205  .00004702  00000+0  39886-3 0  9992
2 43772  97.6127  46.7568 0013597  38.9844 321.2357 14.98332268219140
RANGE-B                 
1 43773U 18099R   22342.91364974  .00002847  00000+0  25360-3 0  9996
2 43773  97.5925  43.2073 0013923  43.8787 316.3538 14.96734596219080
2018-099T               
1 43775U 18099T   22342.17883959  .00002472  00000+0  22153-3 0  9996
2 43775  97.6007  43.8844 0015078  49.3930 310.8601 14.96604469218983
MOVE-II                 
1 43780U 18099Y   22342.44130271  .00007203  00000+0  59256-3 0  9995
2 43780  97.6042  45.8032 0011824  48.8512 311.3729 14.99360205219117
SNUSAT-2                
1 43782U 18099AA  22342.42769854  .00002867  00000+0  25050-3 0  9996
2 43782  97.6015  44.6666 0012939  41.3152 318.9047 14.97496473219060
SNUGLITE                
1 43784U 18099AC  22342.90355291  .00003656  00000+0  31536-3 0  9990
2 43784  97.5967  44.7526 0014905  46.3909 313.8547 14.97809373219160
ITASAT 1                
1 43786U 18099AE  22342.91401620  .00003070  00000+0  26831-3 0  9993
2 43786  97.6033  45.6376 0015271  47.4212 312.8296 14.97416400219150
KAZSCISAT-1             
1 43787U 18099AF  22342.43100443  .00005857  00000+0  48493-3 0  9993
2 43787  97.5954  44.5622 0013230  38.6452 321.5715 14.99178247219154
EAGLET-I                
1 43790U 18099AJ  22342.59627882  .00003277  00000+0  28601-3 0  9998
2 43790  97.6034  45.8708 0014196  53.2789 306.9735 14.97435657218848
ESEO                    
1 43792U 18099AL  22342.14207120  .00001619  00000+0  14685-3 0  9995
2 43792  97.5988  44.3625 0014381  51.5945 308.6566 14.96611889218809
CSIM-FD                 
1 43793U 18099AM  22343.07128164  .00006940  00000+0  56075-3 0  9990
2 43793  97.6096  47.5003 0015568  44.6760 315.5715 15.00027511219041
ASTROCAST 0.1           
1 43798U 18099AS  22342.45022641  .00004841  00000+0  40427-3 0  9991
2 43798  97.6040  46.5243 0011379  29.3421 330.8439 14.98951698219164
JY1SAT (JO-97)          
1 43803U 18099AX  22342.59600893  .00005063  00000+0  43098-3 0  9998
2 43803  97.6005  45.1534 0015574  49.0757 311.1811 14.98138832219132
SUOMI-100               
1 43804U 18099AY  22342.96200158  .00003261  00000+0  28060-3 0  9990
2 43804  97.5994  45.3919 0015219  44.3491 315.8948 14.97978333219192
AL-FARABI 2             
1 43805U 18099AZ  22342.93491742  .00005236  00000+0  43729-3 0  9992
2 43805  97.6028  46.0787 0015568  47.4412 312.8122 14.98866130219224
CENTAURI-1              
1 43809U 18099BD  22342.16904688  .00002724  00000+0  23828-3 0  9996
2 43809  97.6006  44.8659 0015379  48.8999 311.3549 14.97470254218765
CHOMPTT                 
1 43855U 18104G   22342.59757418  .00016342  00000+0  54469-3 0  9994
2 43855  85.0331 294.7807 0012040 322.5046  37.5360 15.30902255221330
DAVINCI                 
1 43857U 18104J   22342.58305386  .00137978  00000+0  18418-2 0  9990
2 43857  85.0181 289.7121 0005631  35.2355 324.9278 15.57599196221748
UWE-4                   
1 43880U 18111E   22342.93393150  .00004413  00000+0  36560-3 0  9995
2 43880  97.6563 246.1800 0012184  96.7362 263.5248 14.99297780213834
ZACUBE-2                
1 43907U 18111AH  22343.24247164  .00011531  00000+0  38616-3 0  9996
2 43907  97.1648 223.3964 0018017 171.0395 308.2926 15.30937729220002
MICRODRAGON             
1 43935U 19003D   22342.02836635  .00010660  00000+0  38924-3 0  9994
2 43935  97.1215   4.4075 0014035 279.4067  80.5586 15.28195642216182
AOBA VELOX-IV           
1 43940U 19003J   22342.37245293  .00060306  00000+0  11037-2 0  9999
2 43940  97.1074  14.0912 0011207 226.5167 133.5154 15.49078691216930
M6P                     
1 44109U 19018AF  22342.64973682  .00034951  00000+0  66755-3 0  9998
2 44109  97.3877  69.3004 0039062 214.8465 145.0227 15.47185678206318
FORMOSAT 7-4            
1 44350U 19036M   22342.48917037  .00006595  00000+0  36592-3 0  9999
2 44350  24.0002 265.5013 0005630   7.7059 352.3530 15.10784108189879
PAINANI 1               
1 44365U 19037A   22342.76447786  .00222512  00000+0  10897-2 0  9994
2 44365  44.9864  86.7899 0011974 323.3877  36.6207 15.80809678194517
METEOR-M2 2             
1 44387U 19038A   22343.14458621  .00000027  00000+0  31363-4 0  9990
2 44387  98.7480 302.7249 0002158 108.6400 251.5014 14.23733583178267
VDNH-80                 
1 44392U 19038G   22343.19400289  .00011283  00000+0  51909-3 0  9991
2 44392  97.6542 315.0209 0015905 247.2373 236.9263 15.20396518189363
D-STAR ONE (LIGHTSAT)   
1 44393U 19038H   22342.38314055  .00014145  00000+0  64657-3 0  9991
2 44393  97.6565 314.1284 0015858 249.3431 110.6104 15.20561563189431
AMGU-1 (AMURSAT)        
1 44394U 19038J   22343.20195367  .00012750  00000+0  57407-3 0  9992
2 44394  97.6549 314.9811 0015750 247.0768 112.8820 15.21106404189560
DOT-1                   
1 44399U 19038P   22342.36950159  .00008514  00000+0  42857-3 0  9997
2 44399  97.6621 312.3508 0019828 258.5892 101.3113 15.17293308189299
SOKRAT                  
1 44404U 19038U   22342.36638955  .00014666  00000+0  66513-3 0  9991
2 44404  97.6554 313.7279 0015900 251.7861 108.1643 15.20822146189418
LUCKY-7                 
1 44406U 19038W   22342.64712888  .00007772  00000+0  38482-3 0  9996
2 44406  97.6612 313.1047 0019513 248.1570 111.7588 15.17905703189362
